{
    "crs": {
        "properties": {
            "name": "urn:ogc:def:crs:EPSG::3857"
        },
        "type": "name"
    },
    "features": [
        {
            "geometry": {
                "coordinates": [
                    0.09989000111818314,
                    0.2691340148448944
                ],
                "type": "Point"
            },
            "properties": {
                "frame": "map",
                "id": 0
            },
            "type": "Feature"
        },
        {
            "geometry": {
                "coordinates": [
                    0.7707970142364502,
                    0.23333300650119781
                ],
                "type": "Point"
            },
            "properties": {
                "frame": "map",
                "id": 1
            },
            "type": "Feature"
        },
        {
            "geometry": {
                "coordinates": [
                    1.5439079999923706,
                    -0.029848000034689903
                ],
                "type": "Point"
            },
            "properties": {
                "frame": "map",
                "id": 2
            },
            "type": "Feature"
        },
        {
            "geometry": {
                "coordinates": [
                    1.580199956893921,
                    -0.7563509941101074
                ],
                "type": "Point"
            },
            "properties": {
                "frame": "map",
                "id": 3
            },
            "type": "Feature"
        },
        {
            "geometry": {
                "coordinates": [
                    2.513284921646118,
                    -1.334939956665039
                ],
                "type": "Point"
            },
            "properties": {
                "frame": "map",
                "id": 4
            },
            "type": "Feature"
        },
        {
            "geometry": {
                "type": "MultiLineString"
            },
            "properties": {
                "cost": 0.0,
                "endid": 1,
                "id": 5,
                "overridable": true,
                "startid": 0
            },
            "type": "Feature"
        },
        {
            "geometry": {
                "type": "MultiLineString"
            },
            "properties": {
                "cost": 0.0,
                "endid": 0,
                "id": 6,
                "overridable": true,
                "startid": 1
            },
            "type": "Feature"
        },
        {
            "geometry": {
                "type": "MultiLineString"
            },
            "properties": {
                "cost": 0.0,
                "endid": 2,
                "id": 7,
                "overridable": true,
                "startid": 1
            },
            "type": "Feature"
        },
        {
            "geometry": {
                "type": "MultiLineString"
            },
            "properties": {
                "cost": 0.0,
                "endid": 1,
                "id": 8,
                "overridable": true,
                "startid": 2
            },
            "type": "Feature"
        },
        {
            "geometry": {
                "type": "MultiLineString"
            },
            "properties": {
                "cost": 0.0,
                "endid": 3,
                "id": 9,
                "overridable": true,
                "startid": 2
            },
            "type": "Feature"
        },
        {
            "geometry": {
                "type": "MultiLineString"
            },
            "properties": {
                "cost": 0.0,
                "endid": 2,
                "id": 10,
                "overridable": true,
                "startid": 3
            },
            "type": "Feature"
        },
        {
            "geometry": {
                "type": "MultiLineString"
            },
            "properties": {
                "cost": 0.0,
                "endid": 4,
                "id": 11,
                "overridable": true,
                "startid": 3
            },
            "type": "Feature"
        },
        {
            "geometry": {
                "type": "MultiLineString"
            },
            "properties": {
                "cost": 0.0,
                "endid": 3,
                "id": 12,
                "overridable": true,
                "startid": 4
            },
            "type": "Feature"
        }
    ],
    "name": "graph",
    "type": "FeatureCollection"
}
